$$SOE
2461295.500000000, A.D. 2026-Sep-12 00:00:00.0000, 4.775297587691655E+08, -1.738556014825944E+08, -3.513634029278629E+06,
2461302.500000000, A.D. 2026-Sep-19 00:00:00.0000, 4.789619864218987E+08, -1.644337667316632E+08, -3.563108273537241E+06,
2461309.500000000, A.D. 2026-Sep-26 00:00:00.0000, 4.802152021322730E+08, -1.549505038393873E+08, -3.611251096034758E+06,
2461316.500000000, A.D. 2026-Oct-03 00:00:00.0000, 4.812870020482560E+08, -1.454087354497026E+08, -3.658029890302107E+06,
2461323.500000000, A.D. 2026-Oct-10 00:00:00.0000, 4.821749974062805E+08, -1.358114697243681E+08, -3.703411872911595E+06,
2461330.500000000, A.D. 2026-Oct-17 00:00:00.0000, 4.828768166977310E+08, -1.261618023048887E+08, -3.747364089567132E+06,
2461337.500000000, A.D. 2026-Oct-24 00:00:00.0000, 4.833901079663463E+08, -1.164629183694858E+08, -3.789853430150591E+06,
2461344.500000000, A.D. 2026-Oct-31 00:00:00.0000, 4.837125413426272E+08, -1.067180948469874E+08, -3.830846667148784E+06,
2461351.500000000, A.D. 2026-Nov-07 00:00:00.0000, 4.838418121606951E+08, -9.693070270855308E+07, -3.870310542432494E+06,
2461358.500000000, A.D. 2026-Nov-14 00:00:00.0000, 4.837756448642128E+08, -8.710420844353482E+07, -3.908211848161303E+06,
2461365.500000000, A.D. 2026-Nov-21 00:00:00.0000, 4.835117958965643E+08, -7.724217403044577E+07, -3.944517279635675E+06,
2461372.500000000, A.D. 2026-Nov-28 00:00:00.0000, 4.830480545844314E+08, -6.734825840460297E+07, -3.979193214140460E+06,
2461379.500000000, A.D. 2026-Dec-05 00:00:00.0000, 4.823822456391022E+08, -5.742622107134455E+07, -4.012205801325791E+06,
2461386.500000000, A.D. 2026-Dec-12 00:00:00.0000, 4.815122334448144E+08, -4.747992474422574E+07, -4.043521125887161E+06,
2461393.500000000, A.D. 2026-Dec-19 00:00:00.0000, 4.804359262524416E+08, -3.751333699138469E+07, -4.073105268728336E+06,
2461400.500000000, A.D. 2026-Dec-26 00:00:00.0000, 4.791512801418147E+08, -2.753053174741809E+07, -4.100924324332666E+06,
2461407.500000000, A.D. 2027-Jan-02 00:00:00.0000, 4.776563030336052E+08, -1.753569087034605E+07, -4.126944415157441E+06,
2461414.500000000, A.D. 2027-Jan-09 00:00:00.0000, 4.759490588721021E+08, -7.533105711356148E+06, -4.151131712093113E+06,
2461421.500000000, A.D. 2027-Jan-16 00:00:00.0000, 4.740276720178859E+08, 2.472821324477420E+06, -4.173452463515263E+06,
2461428.500000000, A.D. 2027-Jan-23 00:00:00.0000, 4.718903318993891E+08, 1.247757520065486E+07, -4.193873040447828E+06,
2461435.500000000, A.D. 2027-Jan-30 00:00:00.0000, 4.695352981132275E+08, 2.247652662150567E+07, -4.212360019116265E+06,
2461442.500000000, A.D. 2027-Feb-06 00:00:00.0000, 4.669609063985452E+08, 3.246493070949133E+07, -4.228880312334083E+06,
2461449.500000000, A.D. 2027-Feb-13 00:00:00.0000, 4.641655750243298E+08, 4.243792722460884E+07, -4.243401208049260E+06,
2461456.500000000, A.D. 2027-Feb-20 00:00:00.0000, 4.611478092270837E+08, 5.239054155398610E+07, -4.255890162943760E+06,
2461463.500000000, A.D. 2027-Feb-27 00:00:00.0000, 4.579062050965311E+08, 6.231768327597771E+07, -4.266314742001090E+06,
2461470.500000000, A.D. 2027-Mar-06 00:00:00.0000, 4.544394559253941E+08, 7.221414423986527E+07, -4.274642824182667E+06,
2461477.500000000, A.D. 2027-Mar-13 00:00:00.0000, 4.507463594196213E+08, 8.207459823160015E+07, -4.280842760237738E+06,
2461484.500000000, A.D. 2027-Mar-20 00:00:00.0000, 4.468258246364769E+08, 9.189360141299795E+07, -4.284883447453603E+06,
2461491.500000000, A.D. 2027-Mar-27 00:00:00.0000, 4.426768788482381E+08, 1.016655930080466E+08, -4.286734384898528E+06,
2461498.500000000, A.D. 2027-Apr-03 00:00:00.0000, 4.382986745284187E+08, 1.113848962119402E+08, -4.286365731804341E+06,
2461505.500000000, A.D. 2027-Apr-10 00:00:00.0000, 4.336904965139783E+08, 1.210457193700780E+08, -4.283748372906066E+06,
2461512.500000000, A.D. 2027-Apr-17 00:00:00.0000, 4.288517693560185E+08, 1.306421574376993E+08, -4.278853993966430E+06,
2461519.500000000, A.D. 2027-Apr-24 00:00:00.0000, 4.237820649268885E+08, 1.401681936836128E+08, -4.271655179822274E+06,
2461526.500000000, A.D. 2027-May-01 00:00:00.0000, 4.184811105701448E+08, 1.496177016914940E+08, -4.262125560172528E+06,
2461533.500000000, A.D. 2027-May-08 00:00:00.0000, 4.129487980841278E+08, 1.589844484322503E+08, -4.250239970210731E+06,
2461540.500000000, A.D. 2027-May-15 00:00:00.0000, 4.071851920216082E+08, 1.682620993872237E+08, -4.235974410751805E+06,
2461547.500000000, A.D. 2027-May-22 00:00:00.0000, 4.011905357217166E+08, 1.774442231586992E+08, -4.219305875820771E+06,
2461554.500000000, A.D. 2027-May-29 00:00:00.0000, 3.949652584090378E+08, 1.865242941239932E+08, -4.200212475447714E+06,
2461561.500000000, A.D. 2027-Jun-05 00:00:00.0000, 3.885099842158352E+08, 1.954956962868326E+08, -4.178673678964049E+06,
2461568.500000000, A.D. 2027-Jun-12 00:00:00.0000, 3.818255410860980E+08, 2.043517287807174E+08, -4.154670459191427E+06,
2461575.500000000, A.D. 2027-Jun-19 00:00:00.0000, 3.749129691941166E+08, 2.130856121126321E+08, -4.128185383202553E+06,
2461582.500000000, A.D. 2027-Jun-26 00:00:00.0000, 3.677735291185970E+08, 2.216904949091023E+08, -4.099202696119890E+06,
2461589.500000000, A.D. 2027-Jul-03 00:00:00.0000, 3.604087098646101E+08, 2.301594611952282E+08, -4.067708408742860E+06,
2461596.500000000, A.D. 2027-Jul-10 00:00:00.0000, 3.528202367287954E+08, 2.384855382352085E+08, -4.033690390977263E+06,
2461603.500000000, A.D. 2027-Jul-17 00:00:00.0000, 3.450100789999936E+08, 2.466617049116444E+08, -3.997138476904020E+06,
2461610.500000000, A.D. 2027-Jul-24 00:00:00.0000, 3.369804576040197E+08, 2.546809005932228E+08, -3.958044600343421E+06,
2461617.500000000, A.D. 2027-Jul-31 00:00:00.0000, 3.287338530528745E+08, 2.625360347346134E+08, -3.916402978883505E+06,
2461624.500000000, A.D. 2027-Aug-07 00:00:00.0000, 3.202730134419103E+08, 2.702199983629545E+08, -3.872210233460844E+06,
2461631.500000000, A.D. 2027-Aug-14 00:00:00.0000, 3.116009601317376E+08, 2.777256771967177E+08, -3.825465252427757E+06,
2461638.500000000, A.D. 2027-Aug-21 00:00:00.0000, 3.027209916718941E+08, 2.850459630321163E+08, -3.776169130800173E+06,
2461645.500000000, A.D. 2027-Aug-28 00:00:00.0000, 2.936366893379443E+08, 2.921737645921742E+08, -3.724325400708467E+06,
2461652.500000000, A.D. 2027-Sep-04 00:00:00.0000, 2.843519230358400E+08, 2.991020203239367E+08, -3.669940239941418E+06,
2461659.500000000, A.D. 2027-Sep-11 00:00:00.0000, 2.748708561110083E+08, 3.058237124614071E+08, -3.613022584123716E+06,
2461666.500000000, A.D. 2027-Sep-18 00:00:00.0000, 2.651979491287618E+08, 3.123318816775628E+08, -3.553584207362965E+06,
2461673.500000000, A.D. 2027-Sep-25 00:00:00.0000, 2.553379627886963E+08, 3.186196422146831E+08, -3.491639798233524E+06,
2461680.500000000, A.D. 2027-Oct-02 00:00:00.0000, 2.452959599825875E+08, 3.246801974804459E+08, -3.427207035254031E+06,
2461687.500000000, A.D. 2027-Oct-09 00:00:00.0000, 2.350773069540575E+08, 3.305068560580987E+08, -3.360306663781106E+06,
2461694.500000000, A.D. 2027-Oct-16 00:00:00.0000, 2.246876735611707E+08, 3.360930480215605E+08, -3.290962584035546E+06,
2461701.500000000, A.D. 2027-Oct-23 00:00:00.0000, 2.141330328431175E+08, 3.414323414887318E+08, -3.219201973960251E+06,
2461708.500000000, A.D. 2027-Oct-30 00:00:00.0000, 2.034196602120705E+08, 3.465184599554030E+08, -3.145055430888683E+06,
2461715.500000000, A.D. 2027-Nov-06 00:00:00.0000, 1.925541310583368E+08, 3.513453014598595E+08, -3.068556932762295E+06,
2461722.500000000, A.D. 2027-Nov-13 00:00:00.0000, 1.815433147361396E+08, 3.559069574147104E+08, -2.989743605564773E+06,
2461729.500000000, A.D. 2027-Nov-20 00:00:00.0000, 1.703943677922531E+08, 3.601977288331479E+08, -2.908655740628406E+06,
2461736.500000000, A.D. 2027-Nov-27 00:00:00.0000, 1.591147280282656E+08, 3.642121428200772E+08, -2.825336967568636E+06,
2461743.500000000, A.D. 2027-Dec-04 00:00:00.0000, 1.477121073509109E+08, 3.679449701370416E+08, -2.739834322101533E+06,
2461750.500000000, A.D. 2027-Dec-11 00:00:00.0000, 1.361944828443396E+08, 3.713912427687280E+08, -2.652198236297578E+06,
2461757.500000000, A.D. 2027-Dec-18 00:00:00.0000, 1.245700863337799E+08, 3.745462710422088E+08, -2.562482503572434E+06,
2461764.500000000, A.D. 2027-Dec-25 00:00:00.0000, 1.128473925979607E+08, 3.774056601857069E+08, -2.470744232047498E+06,
2461771.500000000, A.D. 2028-Jan-01 00:00:00.0000, 1.010351062887054E+08, 3.799653262298801E+08, -2.377043788506627E+06,
$$EOE